{"type":"FeatureCollection","properties":{"generation":"20260905T141636Z","what":"tidal terminus -> skeleton vertex","features_":290,"land_tested":"every join is refused if the straight line crosses land, on both coastlines","use_constraint":"DO NOT USE FOR NAVIGATION"},"features":[{"type":"Feature","geometry":{"type":"LineString","coordinates":[[1.28046,51.970567],[1.27723,51.9708]]},"properties":{"node_id":"os:node/00A00717-F0AA-4FBE-89BA-567B79B903D7","to":"skeleton","chain":74656,"m":224}},{"type":"Feature","geometry":{"type":"LineString","coordinates":[[-0.142593,53.609407],[-0.12609,53.62357]]},"properties":{"node_id":"os:node/01020690-97A8-4C34-A08C-40341369B574","to":"skeleton","chain":1564,"m":1918}},{"type":"Feature","geometry":{"type":"LineString","coordinates":[[-5.262994,50.033451],[-5.28448,50.02532]]},"properties":{"node_id":"os:node/0299AF90-C770-4BD5-801F-E05D0BE879AD","to":"skeleton","chain":54952,"m":1785}},{"type":"Feature","geometry":{"type":"LineString","coordinates":[[0.681395,51.63683],[0.68124,51.63566]]},"properties":{"node_id":"os:node/02BC7D25-A8E2-417A-BACD-FAA58F374929","to":"skeleton","chain":66079,"m":131}},{"type":"Feature","geometry":{"type":"LineString","coordinates":[[-4.435972,50.360912],[-4.44806,50.35126]]},"properties":{"node_id":"os:node/030666D8-11A3-41B8-B12C-96C86F4CF053","to":"skeleton","chain":8579,"m":1375}},{"type":"Feature","geometry":{"type":"LineString","coordinates":[[-4.558527,50.832218],[-4.55845,50.83234]]},"properties":{"node_id":"os:node/03861C62-943C-4C7E-B544-9B1CA10DB9D4","to":"skeleton","chain":36113,"m":15}},{"type":"Feature","geometry":{"type":"LineString","coordinates":[[-1.461,50.76055],[-1.46397,50.76066]]},"properties":{"node_id":"os:node/042BBC5A-4644-4AF1-B4E7-48DC2749358B","to":"skeleton","chain":64736,"m":210}},{"type":"Feature","geometry":{"type":"LineString","coordinates":[[0.710402,51.636533],[0.71064,51.6363]]},"properties":{"node_id":"os:node/0460AB7B-065F-44B1-AA63-8555BAD5E3E2","to":"skeleton","chain":75102,"m":31}},{"type":"Feature","geometry":{"type":"LineString","coordinates":[[-0.695257,53.698455],[-0.69569,53.69847]]},"properties":{"node_id":"os:node/0598253B-F028-4EE2-8533-127664CA8EF8","to":"skeleton","chain":53397,"m":29}},{"type":"Feature","geometry":{"type":"LineString","coordinates":[[-4.930993,50.545722],[-4.93047,50.54561]]},"properties":{"node_id":"os:node/0617E6A1-37CC-4B43-8B0F-F08A61C94DCA","to":"skeleton","chain":38088,"m":39}},{"type":"Feature","geometry":{"type":"LineString","coordinates":[[-5.100194,50.087805],[-5.05215,50.08444]]},"properties":{"node_id":"os:node/0652D571-73A4-4BEE-8AB0-883546D0A287","to":"skeleton","chain":37496,"m":3458}},{"type":"Feature","geometry":{"type":"LineString","coordinates":[[-1.556037,50.714304],[-1.55586,50.71436]]},"properties":{"node_id":"os:node/06621433-66EC-4F1D-89ED-8A4918271FF8","to":"skeleton","chain":6478,"m":14}},{"type":"Feature","geometry":{"type":"LineString","coordinates":[[-1.292306,50.762262],[-1.29284,50.76245]]},"properties":{"node_id":"os:node/089B173C-E9A7-4292-9882-1A5296C01D82","to":"skeleton","chain":46189,"m":43}},{"type":"Feature","geometry":{"type":"LineString","coordinates":[[-3.406386,54.348454],[-3.40794,54.34863]]},"properties":{"node_id":"os:node/09D9A8E3-A557-46A5-A193-BDD33DD438C6","to":"skeleton","chain":70713,"m":103}},{"type":"Feature","geometry":{"type":"LineString","coordinates":[[-4.073072,52.679663],[-4.08687,52.70316]]},"properties":{"node_id":"os:node/0F024D43-DACC-45FE-B465-310340E5570C","to":"skeleton","chain":42969,"m":2775}},{"type":"Feature","geometry":{"type":"LineString","coordinates":[[-4.186921,50.357607],[-4.18987,50.36149]]},"properties":{"node_id":"os:node/10911205-A4FE-482E-A700-84ECD5EEF0CE","to":"skeleton","chain":19050,"m":480}},{"type":"Feature","geometry":{"type":"LineString","coordinates":[[-3.306652,50.628714],[-3.29199,50.61393]]},"properties":{"node_id":"os:node/1223B7A0-F04C-4192-B430-EE042E1162BF","to":"skeleton","chain":15558,"m":1944}},{"type":"Feature","geometry":{"type":"LineString","coordinates":[[-4.872749,51.718497],[-4.87252,51.7181]]},"properties":{"node_id":"os:node/128A361C-431A-41A8-8AF4-3F003BF35551","to":"skeleton","chain":63848,"m":47}},{"type":"Feature","geometry":{"type":"LineString","coordinates":[[-4.495834,52.836794],[-4.47725,52.82409]]},"properties":{"node_id":"os:node/1470FBC1-34FC-4BF7-B6F5-647249A2EC84","to":"skeleton","chain":62458,"m":1888}},{"type":"Feature","geometry":{"type":"LineString","coordinates":[[-4.76633,50.64027],[-4.79064,50.65791]]},"properties":{"node_id":"os:node/14C67628-B44D-420D-A8A3-18FED40950D8","to":"skeleton","chain":30063,"m":2608}},{"type":"Feature","geometry":{"type":"LineString","coordinates":[[-3.647656,51.468665],[-3.6907,51.46814]]},"properties":{"node_id":"os:node/1505D1C8-7F1B-4513-A71C-44C833816CF9","to":"skeleton","chain":75402,"m":2991}},{"type":"Feature","geometry":{"type":"LineString","coordinates":[[0.121654,52.952934],[0.12109,52.95236]]},"properties":{"node_id":"os:node/151849B8-9DD8-4A5A-BE06-F971CDB4C2C3","to":"skeleton","chain":27296,"m":74}},{"type":"Feature","geometry":{"type":"LineString","coordinates":[[-5.230932,49.974616],[-5.22779,49.97269]]},"properties":{"node_id":"os:node/16A447B3-89CF-4681-B147-2FFD7AA318AB","to":"skeleton","chain":63699,"m":311}},{"type":"Feature","geometry":{"type":"LineString","coordinates":[[-5.064369,50.425665],[-5.06441,50.42541]]},"properties":{"node_id":"os:node/16FB9D9E-B50B-400F-A7FF-6E6E9F4EF226","to":"skeleton","chain":76620,"m":28}},{"type":"Feature","geometry":{"type":"LineString","coordinates":[[-4.581248,53.302802],[-4.57642,53.30305]]},"properties":{"node_id":"os:node/190B5AFE-A0DD-4794-8014-6F508CF591ED","to":"skeleton","chain":41845,"m":323}},{"type":"Feature","geometry":{"type":"LineString","coordinates":[[-4.700547,50.343589],[-4.70133,50.34313]]},"properties":{"node_id":"os:node/19D96086-789A-4036-95E5-344935806F3C","to":"skeleton","chain":53843,"m":76}},{"type":"Feature","geometry":{"type":"LineString","coordinates":[[-0.667755,54.502448],[-0.66652,54.50716]]},"properties":{"node_id":"os:node/1B423800-A13E-4DC3-A549-7BA9A1BE915B","to":"skeleton","chain":61966,"m":531}},{"type":"Feature","geometry":{"type":"LineString","coordinates":[[-4.317922,53.416291],[-4.30141,53.41899]]},"properties":{"node_id":"os:node/1B96BC8C-5FB8-4236-8462-E895395459E7","to":"skeleton","chain":39569,"m":1138}},{"type":"Feature","geometry":{"type":"LineString","coordinates":[[-4.868535,52.019606],[-4.86102,52.03017]]},"properties":{"node_id":"os:node/1BDEE90D-DA82-439D-A12F-5DD10E8154A8","to":"skeleton","chain":679,"m":1283}},{"type":"Feature","geometry":{"type":"LineString","coordinates":[[-3.249193,51.394813],[-3.25524,51.39271]]},"properties":{"node_id":"os:node/1BE0790B-8FDE-4A5D-985B-8E9FEE2D1C14","to":"skeleton","chain":4668,"m":481}},{"type":"Feature","geometry":{"type":"LineString","coordinates":[[-2.881892,51.43084],[-2.88251,51.42996]]},"properties":{"node_id":"os:node/1BFCACD5-1069-4977-BAF6-48B316C28907","to":"skeleton","chain":66791,"m":107}},{"type":"Feature","geometry":{"type":"LineString","coordinates":[[-5.434373,50.200906],[-5.43663,50.19909]]},"properties":{"node_id":"os:node/1FD8181F-30D8-477E-BA55-71DF1F448CA0","to":"skeleton","chain":73387,"m":258}},{"type":"Feature","geometry":{"type":"LineString","coordinates":[[-1.215937,50.735155],[-1.1998,50.74384]]},"properties":{"node_id":"os:node/21E613DD-7094-4687-9DE5-17E36522B4A2","to":"skeleton","chain":31787,"m":1493}},{"type":"Feature","geometry":{"type":"LineString","coordinates":[[-4.258825,52.909351],[-4.26321,52.89382]]},"properties":{"node_id":"os:node/24F3B5B7-E616-4317-B84E-0396C17018A6","to":"skeleton","chain":78935,"m":1753}},{"type":"Feature","geometry":{"type":"LineString","coordinates":[[-3.927511,51.607888],[-3.93783,51.58847]]},"properties":{"node_id":"os:node/2525181C-D814-4DAE-A7AB-C6E63A8643B4","to":"skeleton","chain":43824,"m":2275}},{"type":"Feature","geometry":{"type":"LineString","coordinates":[[-1.648509,55.572446],[-1.6024,55.58602]]},"properties":{"node_id":"os:node/2560BA61-09C4-44AB-A7FB-603AE6336CA8","to":"skeleton","chain":7832,"m":3276}},{"type":"Feature","geometry":{"type":"LineString","coordinates":[[-4.516111,53.222623],[-4.52046,53.22244]]},"properties":{"node_id":"os:node/26AB332A-4536-4830-97B2-AF68ABA5AE45","to":"skeleton","chain":18558,"m":291}},{"type":"Feature","geometry":{"type":"LineString","coordinates":[[-5.279853,51.86722],[-5.27715,51.86586]]},"properties":{"node_id":"os:node/2720C318-C56E-4E64-9F24-59E31F61AE51","to":"skeleton","chain":44197,"m":240}},{"type":"Feature","geometry":{"type":"LineString","coordinates":[[-1.492448,50.752562],[-1.50896,50.74246]]},"properties":{"node_id":"os:node/277B83D4-00E4-4F1A-89E2-9899CA3FE7BC","to":"skeleton","chain":25459,"m":1619}},{"type":"Feature","geometry":{"type":"LineString","coordinates":[[-4.527102,53.231473],[-4.53203,53.23011]]},"properties":{"node_id":"os:node/27F67E85-C96E-4256-8AC3-E4115238856B","to":"skeleton","chain":77980,"m":362}},{"type":"Feature","geometry":{"type":"LineString","coordinates":[[-4.148078,51.638065],[-4.14754,51.63771]]},"properties":{"node_id":"os:node/2810E885-207B-445B-86C8-B79B5F8F1062","to":"skeleton","chain":19937,"m":54}},{"type":"Feature","geometry":{"type":"LineString","coordinates":[[-4.088581,52.75371],[-4.07081,52.71321]]},"properties":{"node_id":"os:node/284B5AA9-224F-44EC-80CB-530211E3FB49","to":"skeleton","chain":42969,"m":4663}},{"type":"Feature","geometry":{"type":"LineString","coordinates":[[-3.578071,54.653051],[-3.57463,54.6555]]},"properties":{"node_id":"os:node/2882864D-508C-4475-8DD9-D1E739B00D8A","to":"skeleton","chain":64427,"m":351}},{"type":"Feature","geometry":{"type":"LineString","coordinates":[[0.427669,52.882731],[0.41292,52.87443]]},"properties":{"node_id":"os:node/29CEEDF4-8682-44D5-A66A-2D2C978A6823","to":"skeleton","chain":44738,"m":1357}},{"type":"Feature","geometry":{"type":"LineString","coordinates":[[-4.567439,53.384008],[-4.57977,53.39374]]},"properties":{"node_id":"os:node/2B46AF9D-E47E-4340-8E70-A74CDC535DA3","to":"skeleton","chain":68181,"m":1358}},{"type":"Feature","geometry":{"type":"LineString","coordinates":[[-0.672202,54.503788],[-0.66652,54.50716]]},"properties":{"node_id":"os:node/2B80C52F-10A1-4CC7-8005-6ACA9AD867D5","to":"skeleton","chain":61966,"m":526}},{"type":"Feature","geometry":{"type":"LineString","coordinates":[[-2.833659,54.015607],[-2.83286,54.01558]]},"properties":{"node_id":"os:node/2CBCEB1B-CD76-46A3-92B7-2302FEEC7211","to":"skeleton","chain":27861,"m":52}},{"type":"Feature","geometry":{"type":"LineString","coordinates":[[-3.509886,53.326808],[-3.51392,53.32436]]},"properties":{"node_id":"os:node/30BB0ADA-EF66-403A-925E-6DE383538FDD","to":"skeleton","chain":29154,"m":383}},{"type":"Feature","geometry":{"type":"LineString","coordinates":[[1.391823,51.98208],[1.39509,51.98367]]},"properties":{"node_id":"os:node/3173ACCE-BFA2-483D-A857-EDC5258C1705","to":"skeleton","chain":27079,"m":286}},{"type":"Feature","geometry":{"type":"LineString","coordinates":[[-1.169798,50.785498],[-1.1925,50.7625]]},"properties":{"node_id":"os:node/31C92632-6875-4B8A-B923-B89D6F18562E","to":"skeleton","chain":32687,"m":3018}},{"type":"Feature","geometry":{"type":"LineString","coordinates":[[-2.999089,53.910277],[-3.00192,53.9104]]},"properties":{"node_id":"os:node/32C63924-33D4-4D50-A04D-2F1E95A47EA0","to":"skeleton","chain":6024,"m":186}},{"type":"Feature","geometry":{"type":"LineString","coordinates":[[-5.168635,51.715031],[-5.16883,51.71561]]},"properties":{"node_id":"os:node/33E531CB-8BA8-40F0-AE93-90C03E426DE5","to":"skeleton","chain":29917,"m":66}},{"type":"Feature","geometry":{"type":"LineString","coordinates":[[-1.740552,50.724055],[-1.74046,50.72381]]},"properties":{"node_id":"os:node/34AE1D9F-1653-412A-9ED8-F15FB9ECE857","to":"skeleton","chain":62983,"m":28}},{"type":"Feature","geometry":{"type":"LineString","coordinates":[[-3.159682,51.442855],[-3.15956,51.44556]]},"properties":{"node_id":"os:node/350CC816-D03B-41FD-BAB6-6B4E2ECEE956","to":"skeleton","chain":78767,"m":301}},{"type":"Feature","geometry":{"type":"LineString","coordinates":[[-2.740208,51.497151],[-2.74612,51.50276]]},"properties":{"node_id":"os:node/35F87D26-4D0D-4D64-A5F1-5365B4DAAE34","to":"skeleton","chain":73220,"m":747}},{"type":"Feature","geometry":{"type":"LineString","coordinates":[[-0.500765,54.407185],[-0.48725,54.43526]]},"properties":{"node_id":"os:node/38CC9795-ECD0-4468-9C04-48E5B1463548","to":"skeleton","chain":55626,"m":3246}},{"type":"Feature","geometry":{"type":"LineString","coordinates":[[-4.696028,51.685985],[-4.68638,51.68024]]},"properties":{"node_id":"os:node/3A0C61E0-B1A5-407F-BAE3-7919C9E037EE","to":"skeleton","chain":22769,"m":924}},{"type":"Feature","geometry":{"type":"LineString","coordinates":[[-1.797532,55.662195],[-1.79788,55.66366]]},"properties":{"node_id":"os:node/3AE762A1-D120-4159-8853-F97AB654E416","to":"skeleton","chain":45576,"m":165}},{"type":"Feature","geometry":{"type":"LineString","coordinates":[[-1.500928,50.706795],[-1.50434,50.70693]]},"properties":{"node_id":"os:node/3B790F3E-F599-4B76-8972-EE8CE64D66BC","to":"skeleton","chain":73289,"m":241}},{"type":"Feature","geometry":{"type":"LineString","coordinates":[[-2.444106,51.799806],[-2.44669,51.80003]]},"properties":{"node_id":"os:node/3BD43F12-D056-44C6-8F47-FD4ADE36A900","to":"skeleton","chain":30364,"m":180}},{"type":"Feature","geometry":{"type":"LineString","coordinates":[[-2.834013,54.022844],[-2.83283,54.02288]]},"properties":{"node_id":"os:node/3C23B9B4-73C4-4783-A156-1E6096142581","to":"skeleton","chain":69656,"m":78}},{"type":"Feature","geometry":{"type":"LineString","coordinates":[[-4.211801,51.178425],[-4.24367,51.16733]]},"properties":{"node_id":"os:node/3C567E5E-D234-42A7-992E-C26CA30D7C4C","to":"skeleton","chain":23102,"m":2547}},{"type":"Feature","geometry":{"type":"LineString","coordinates":[[-5.196855,51.869226],[-5.19532,51.86377]]},"properties":{"node_id":"os:node/3CFF7E26-4D17-4271-A927-4968180B7E94","to":"skeleton","chain":43829,"m":616}},{"type":"Feature","geometry":{"type":"LineString","coordinates":[[-0.824108,50.742854],[-0.82167,50.7426]]},"properties":{"node_id":"os:node/3D81F509-3D3B-419A-A495-57A15DD285C7","to":"skeleton","chain":25997,"m":174}},{"type":"Feature","geometry":{"type":"LineString","coordinates":[[-5.038856,50.468339],[-5.04305,50.47952]]},"properties":{"node_id":"os:node/3E329E5E-3348-4F3F-ACEA-189052CF42C6","to":"skeleton","chain":6168,"m":1279}},{"type":"Feature","geometry":{"type":"LineString","coordinates":[[0.695705,51.484339],[0.68624,51.49045]]},"properties":{"node_id":"os:node/3F176902-A83C-4758-BA83-AB15F5D147E0","to":"skeleton","chain":37593,"m":946}},{"type":"Feature","geometry":{"type":"LineString","coordinates":[[0.904071,51.765681],[0.90197,51.76471]]},"properties":{"node_id":"os:node/3F4B2131-CC44-4B48-9506-C40DD5FCC89C","to":"skeleton","chain":12222,"m":181}},{"type":"Feature","geometry":{"type":"LineString","coordinates":[[-2.449495,50.607926],[-2.44932,50.6083]]},"properties":{"node_id":"os:node/40E39814-C40C-47F5-B22B-5D441F329E2E","to":"skeleton","chain":3559,"m":43}},{"type":"Feature","geometry":{"type":"LineString","coordinates":[[-4.265687,52.243997],[-4.29444,52.26096]]},"properties":{"node_id":"os:node/413CDE33-1B3F-4998-8762-0E6AD57186F6","to":"skeleton","chain":15886,"m":2723}},{"type":"Feature","geometry":{"type":"LineString","coordinates":[[1.738454,52.572513],[1.73823,52.57261]]},"properties":{"node_id":"os:node/41BC0929-F241-4765-BF52-F8AAA4CA3664","to":"skeleton","chain":74812,"m":19}},{"type":"Feature","geometry":{"type":"LineString","coordinates":[[-1.241328,50.815172],[-1.26603,50.79805]]},"properties":{"node_id":"os:node/43A1B0C4-FBAF-45B5-A3BF-7126DED7B3EF","to":"skeleton","chain":15357,"m":2580}},{"type":"Feature","geometry":{"type":"LineString","coordinates":[[-4.062765,52.711044],[-4.0648,52.71327]]},"properties":{"node_id":"os:node/44E76995-F7EA-434E-A3AE-4E68FB081BDD","to":"skeleton","chain":42969,"m":283}},{"type":"Feature","geometry":{"type":"LineString","coordinates":[[-4.202838,51.058331],[-4.20436,51.05926]]},"properties":{"node_id":"os:node/453B6245-5C13-48C7-BBE0-60B5A57ED6E3","to":"skeleton","chain":28980,"m":148}},{"type":"Feature","geometry":{"type":"LineString","coordinates":[[-1.632989,55.540859],[-1.62018,55.5513]]},"properties":{"node_id":"os:node/4637E328-71F1-49E2-B30D-FA309251CA96","to":"skeleton","chain":12504,"m":1416}},{"type":"Feature","geometry":{"type":"LineString","coordinates":[[-1.544437,50.726321],[-1.54091,50.71939]]},"properties":{"node_id":"os:node/464E2A0C-D405-4190-B0D5-3AC66626EF5D","to":"skeleton","chain":55937,"m":810}},{"type":"Feature","geometry":{"type":"LineString","coordinates":[[-2.833671,54.01842],[-2.83197,54.01819]]},"properties":{"node_id":"os:node/469553FB-DF1F-48CD-9BB5-32E266B863B1","to":"skeleton","chain":7605,"m":114}},{"type":"Feature","geometry":{"type":"LineString","coordinates":[[-4.451298,50.350738],[-4.45132,50.35121]]},"properties":{"node_id":"os:node/46FB99CA-25B3-467B-9A28-7416F7B4502A","to":"skeleton","chain":8579,"m":53}},{"type":"Feature","geometry":{"type":"LineString","coordinates":[[-5.69269,50.053818],[-5.72398,50.03514]]},"properties":{"node_id":"os:node/47122AB7-C7D9-4D46-BA92-0AA7395DD896","to":"skeleton","chain":40619,"m":3056}},{"type":"Feature","geometry":{"type":"LineString","coordinates":[[0.738889,51.449084],[0.73302,51.44932]]},"properties":{"node_id":"os:node/475A34DC-B033-4E30-9CA8-6A3EF9EA12FF","to":"skeleton","chain":5682,"m":409}},{"type":"Feature","geometry":{"type":"LineString","coordinates":[[-1.107797,50.7845],[-1.11018,50.78467]]},"properties":{"node_id":"os:node/4882C5CE-7E06-4F59-B801-0B0DC614A102","to":"skeleton","chain":48794,"m":169}},{"type":"Feature","geometry":{"type":"LineString","coordinates":[[-1.750735,54.98294],[-1.74854,54.98193]]},"properties":{"node_id":"os:node/4889A77D-8AA9-4C7C-818A-58D45AE4A51A","to":"skeleton","chain":10370,"m":180}},{"type":"Feature","geometry":{"type":"LineString","coordinates":[[-5.123678,50.409954],[-5.12488,50.40815]]},"properties":{"node_id":"os:node/4A1C88DC-0813-475C-A9F0-69FEB31E6BCA","to":"skeleton","chain":27819,"m":218}},{"type":"Feature","geometry":{"type":"LineString","coordinates":[[-2.911592,53.731659],[-2.9096,53.73051]]},"properties":{"node_id":"os:node/4A9D7A76-6B77-4CC4-BA69-88F0702D5D73","to":"skeleton","chain":27995,"m":183}},{"type":"Feature","geometry":{"type":"LineString","coordinates":[[-4.689888,50.346345],[-4.70133,50.34313]]},"properties":{"node_id":"os:node/4AB9A7AE-DF2A-40C0-A09E-BCDCA6674A79","to":"skeleton","chain":51272,"m":889}},{"type":"Feature","geometry":{"type":"LineString","coordinates":[[-4.513973,50.329891],[-4.4956,50.30736]]},"properties":{"node_id":"os:node/4BFDBA7C-BEFA-43BE-9B46-1AF9EBC51156","to":"skeleton","chain":43059,"m":2827}},{"type":"Feature","geometry":{"type":"LineString","coordinates":[[-4.449949,53.414207],[-4.46136,53.42549]]},"properties":{"node_id":"os:node/4C3F7954-8980-4228-A274-DE50534B949A","to":"skeleton","chain":3045,"m":1467}},{"type":"Feature","geometry":{"type":"LineString","coordinates":[[-4.492864,53.412866],[-4.49324,53.41362]]},"properties":{"node_id":"os:node/4C5F5734-3305-4097-B485-6FC0888E761B","to":"skeleton","chain":78648,"m":88}},{"type":"Feature","geometry":{"type":"LineString","coordinates":[[-1.907821,50.705976],[-1.93047,50.67928]]},"properties":{"node_id":"os:node/4CF35C33-B9D9-454C-A9AF-48ABD32EB833","to":"skeleton","chain":59274,"m":3372}},{"type":"Feature","geometry":{"type":"LineString","coordinates":[[-1.692054,50.736996],[-1.69138,50.71596]]},"properties":{"node_id":"os:node/4CFC56B3-5746-4FCA-9921-1574B9D6F44A","to":"skeleton","chain":15463,"m":2340}},{"type":"Feature","geometry":{"type":"LineString","coordinates":[[-1.32817,50.829166],[-1.3283,50.82921]]},"properties":{"node_id":"os:node/4D211D3C-8D21-4A35-86A5-7237E8CA7657","to":"skeleton","chain":68715,"m":10}},{"type":"Feature","geometry":{"type":"LineString","coordinates":[[-2.470436,50.583018],[-2.47009,50.58284]]},"properties":{"node_id":"os:node/4E88EE68-1345-4619-BDD8-A3CF9B47F585","to":"skeleton","chain":12906,"m":31}},{"type":"Feature","geometry":{"type":"LineString","coordinates":[[1.009965,51.800786],[1.01112,51.80068]]},"properties":{"node_id":"os:node/4F46A6E9-2C9C-4B9B-95BF-47615DD63A33","to":"skeleton","chain":6964,"m":81}},{"type":"Feature","geometry":{"type":"LineString","coordinates":[[0.900336,51.619464],[0.90035,51.61918]]},"properties":{"node_id":"os:node/5123E3B0-0E0F-4C5E-A72A-EEC4F24AD8DD","to":"skeleton","chain":77851,"m":32}},{"type":"Feature","geometry":{"type":"LineString","coordinates":[[-4.069978,52.536705],[-4.06819,52.53542]]},"properties":{"node_id":"os:node/522A71F2-274E-4693-B334-545730093358","to":"skeleton","chain":38876,"m":187}},{"type":"Feature","geometry":{"type":"LineString","coordinates":[[-5.168958,50.091919],[-5.16924,50.0917]]},"properties":{"node_id":"os:node/559FBCC0-0BE0-4123-88EB-C8394B44A876","to":"skeleton","chain":67080,"m":32}},{"type":"Feature","geometry":{"type":"LineString","coordinates":[[-4.759296,52.077686],[-4.76234,52.07967]]},"properties":{"node_id":"os:node/5726FAD6-8BAC-473E-8D5A-66927C2812A9","to":"skeleton","chain":58970,"m":304}},{"type":"Feature","geometry":{"type":"LineString","coordinates":[[0.706935,51.520341],[0.70568,51.50341]]},"properties":{"node_id":"os:node/58209E4B-B9F4-4B42-865A-1EC8EBD44DD6","to":"skeleton","chain":49894,"m":1887}},{"type":"Feature","geometry":{"type":"LineString","coordinates":[[-0.247538,50.826886],[-0.24694,50.82696]]},"properties":{"node_id":"os:node/589D9A31-9B38-470B-8623-CA652A092ECB","to":"skeleton","chain":97,"m":43}},{"type":"Feature","geometry":{"type":"LineString","coordinates":[[-4.293307,53.411783],[-4.29967,53.41901]]},"properties":{"node_id":"os:node/5902D566-58E9-49CD-8FDE-742A4BB2594F","to":"skeleton","chain":39570,"m":909}},{"type":"Feature","geometry":{"type":"LineString","coordinates":[[-4.94228,51.707144],[-4.93919,51.70606]]},"properties":{"node_id":"os:node/593DC4D5-3A95-4533-9836-E748C06AD096","to":"skeleton","chain":75129,"m":245}},{"type":"Feature","geometry":{"type":"LineString","coordinates":[[-4.306943,52.222163],[-4.33761,52.2271]]},"properties":{"node_id":"os:node/59449233-2EDA-4C12-9FA8-0DDACA9F577B","to":"skeleton","chain":21537,"m":2166}},{"type":"Feature","geometry":{"type":"LineString","coordinates":[[-1.747728,55.623914],[-1.74752,55.62355]]},"properties":{"node_id":"os:node/59AB0285-81C9-4029-BE28-4CF72617C9D0","to":"skeleton","chain":1861,"m":43}},{"type":"Feature","geometry":{"type":"LineString","coordinates":[[-3.552433,50.450058],[-3.5328,50.44981]]},"properties":{"node_id":"os:node/5AB73D84-96F0-47F1-B4F9-BFAF091C7832","to":"skeleton","chain":2670,"m":1394}},{"type":"Feature","geometry":{"type":"LineString","coordinates":[[-0.0709,53.585473],[-0.07782,53.59841]]},"properties":{"node_id":"os:node/5B1F1D7E-65C7-45F4-8B54-2A5623932FE7","to":"skeleton","chain":66781,"m":1511}},{"type":"Feature","geometry":{"type":"LineString","coordinates":[[-0.765172,53.700356],[-0.76331,53.69924]]},"properties":{"node_id":"os:node/5B53470E-D6E3-47A9-8A11-C98AC5716D8A","to":"skeleton","chain":16729,"m":175}},{"type":"Feature","geometry":{"type":"LineString","coordinates":[[-3.509937,54.718166],[-3.50708,54.71783]]},"properties":{"node_id":"os:node/5BB4183F-7C5C-4F60-BDA5-F17B134401D2","to":"skeleton","chain":27822,"m":188}},{"type":"Feature","geometry":{"type":"LineString","coordinates":[[-4.33706,52.215364],[-4.3475,52.21708]]},"properties":{"node_id":"os:node/5C30B598-5BC1-4B52-A552-280289B5F29D","to":"skeleton","chain":18203,"m":738}},{"type":"Feature","geometry":{"type":"LineString","coordinates":[[-5.527181,50.124223],[-5.52671,50.11943]]},"properties":{"node_id":"os:node/5D04E588-58BF-443E-BDA3-5ECF97C87EB8","to":"skeleton","chain":67441,"m":534}},{"type":"Feature","geometry":{"type":"LineString","coordinates":[[-2.895714,51.416939],[-2.92005,51.43469]]},"properties":{"node_id":"os:node/5E7EB549-DB72-403B-BDBF-88D25B42E2F8","to":"skeleton","chain":55523,"m":2600}},{"type":"Feature","geometry":{"type":"LineString","coordinates":[[-0.245661,53.725162],[-0.25593,53.71788]]},"properties":{"node_id":"os:node/64139117-2D63-4B96-84C7-2FE71563010F","to":"skeleton","chain":12714,"m":1057}},{"type":"Feature","geometry":{"type":"LineString","coordinates":[[-4.196813,51.061686],[-4.19698,51.06194]]},"properties":{"node_id":"os:node/64D6C581-D503-4DFF-9ED5-C801D9BD7388","to":"skeleton","chain":48160,"m":31}},{"type":"Feature","geometry":{"type":"LineString","coordinates":[[-0.897918,54.572444],[-0.9005,54.57454]]},"properties":{"node_id":"os:node/650D1507-1389-4FED-8F36-027C29314384","to":"skeleton","chain":422,"m":287}},{"type":"Feature","geometry":{"type":"LineString","coordinates":[[-2.974952,51.527505],[-2.97841,51.5265]]},"properties":{"node_id":"os:node/6560F596-611D-464D-B83D-7E604E199BEA","to":"skeleton","chain":28024,"m":265}},{"type":"Feature","geometry":{"type":"LineString","coordinates":[[-4.999119,50.163853],[-4.9995,50.16362]]},"properties":{"node_id":"os:node/6589B66C-8CD6-461C-B98F-BA7834640325","to":"skeleton","chain":49595,"m":38}},{"type":"Feature","geometry":{"type":"LineString","coordinates":[[-1.985611,55.763854],[-1.98521,55.76438]]},"properties":{"node_id":"os:node/65C357BA-4A27-4CA8-87D2-4C01961D16BE","to":"skeleton","chain":51387,"m":64}},{"type":"Feature","geometry":{"type":"LineString","coordinates":[[-4.454716,53.41484],[-4.46123,53.42184]]},"properties":{"node_id":"os:node/66D0CF51-5186-4750-9148-83759B13006D","to":"skeleton","chain":57151,"m":891}},{"type":"Feature","geometry":{"type":"LineString","coordinates":[[-3.736071,50.212403],[-3.76418,50.20753]]},"properties":{"node_id":"os:node/6919BF45-4BF8-460A-89BF-42D67D8B039C","to":"skeleton","chain":36358,"m":2078}},{"type":"Feature","geometry":{"type":"LineString","coordinates":[[-4.665506,50.323615],[-4.6355,50.3013]]},"properties":{"node_id":"os:node/6B2CAACA-FE61-47BD-9824-13FBA87614B2","to":"skeleton","chain":71287,"m":3275}},{"type":"Feature","geometry":{"type":"LineString","coordinates":[[1.023467,51.795199],[1.02301,51.79245]]},"properties":{"node_id":"os:node/6B546A41-B2F7-4655-A6B7-A1914D0FF1CE","to":"skeleton","chain":5983,"m":308}},{"type":"Feature","geometry":{"type":"LineString","coordinates":[[-1.093662,50.701293],[-1.09142,50.69986]]},"properties":{"node_id":"os:node/6C2151F2-7456-4070-9C6F-0AF89E2A83A8","to":"skeleton","chain":53260,"m":225}},{"type":"Feature","geometry":{"type":"LineString","coordinates":[[-0.612434,54.492034],[-0.61275,54.49203]]},"properties":{"node_id":"os:node/70518FCE-BE69-4225-9FD6-99858C92E451","to":"skeleton","chain":6349,"m":20}},{"type":"Feature","geometry":{"type":"LineString","coordinates":[[1.012572,51.801094],[1.01289,51.80167]]},"properties":{"node_id":"os:node/707A2BA4-AA39-4FDC-8B59-E1DA502B4EF7","to":"skeleton","chain":79017,"m":68}},{"type":"Feature","geometry":{"type":"LineString","coordinates":[[-1.43105,55.008156],[-1.43118,55.00848]]},"properties":{"node_id":"os:node/72284317-C6FB-48A0-917F-A930652B35DF","to":"skeleton","chain":62689,"m":37}},{"type":"Feature","geometry":{"type":"LineString","coordinates":[[-2.83607,54.008796],[-2.83555,54.00829]]},"properties":{"node_id":"os:node/72D15FAD-78C7-4557-881F-77C5E1E6091A","to":"skeleton","chain":27861,"m":66}},{"type":"Feature","geometry":{"type":"LineString","coordinates":[[-3.137782,54.066166],[-3.13753,54.06827]]},"properties":{"node_id":"os:node/7311899A-0A4A-48C2-B0A8-B221F6442F85","to":"skeleton","chain":11726,"m":235}},{"type":"Feature","geometry":{"type":"LineString","coordinates":[[-2.697796,51.570648],[-2.69388,51.56678]]},"properties":{"node_id":"os:node/747449B0-9B3D-4152-A2A7-E5D550FEB336","to":"skeleton","chain":49387,"m":509}},{"type":"Feature","geometry":{"type":"LineString","coordinates":[[-4.196979,51.059494],[-4.19698,51.06194]]},"properties":{"node_id":"os:node/749127FB-50F7-4D3A-AD5F-C53D1E3E3F09","to":"skeleton","chain":48160,"m":272}},{"type":"Feature","geometry":{"type":"LineString","coordinates":[[-3.440022,54.333473],[-3.4399,54.3334]]},"properties":{"node_id":"os:node/74B0A615-3D80-4829-A939-74EAD52D007D","to":"skeleton","chain":52401,"m":11}},{"type":"Feature","geometry":{"type":"LineString","coordinates":[[-4.978509,51.688229],[-4.9787,51.68819]]},"properties":{"node_id":"os:node/74F04329-3159-4C30-9D1F-7F3DDA84E91F","to":"skeleton","chain":60945,"m":14}},{"type":"Feature","geometry":{"type":"LineString","coordinates":[[-4.497866,52.144226],[-4.53109,52.14861]]},"properties":{"node_id":"os:node/753EF9F9-023F-4F68-BC39-6EBD1BB23A21","to":"skeleton","chain":3919,"m":2325}},{"type":"Feature","geometry":{"type":"LineString","coordinates":[[-1.539746,50.727074],[-1.54091,50.71939]]},"properties":{"node_id":"os:node/762A159E-4BB9-468B-AB31-0741F46549FC","to":"skeleton","chain":73372,"m":859}},{"type":"Feature","geometry":{"type":"LineString","coordinates":[[-2.684795,53.355727],[-2.68295,53.35684]]},"properties":{"node_id":"os:node/763501A3-53BF-4C4A-978E-D9C88CE3C2AE","to":"skeleton","chain":9305,"m":174}},{"type":"Feature","geometry":{"type":"LineString","coordinates":[[-2.607045,50.654973],[-2.60223,50.65221]]},"properties":{"node_id":"os:node/7660C0F9-9634-4BB3-9BD7-2CD4550178EC","to":"skeleton","chain":17965,"m":459}},{"type":"Feature","geometry":{"type":"LineString","coordinates":[[-2.909957,53.731765],[-2.9096,53.73051]]},"properties":{"node_id":"os:node/77574BC7-1C27-4549-8FF5-8F7478311ACA","to":"skeleton","chain":27995,"m":142}},{"type":"Feature","geometry":{"type":"LineString","coordinates":[[0.080923,52.933741],[0.07819,52.93209]]},"properties":{"node_id":"os:node/776AF392-0B2E-46AA-9645-34AD120F542E","to":"skeleton","chain":14260,"m":260}},{"type":"Feature","geometry":{"type":"LineString","coordinates":[[-5.440939,50.178205],[-5.43798,50.17767]]},"properties":{"node_id":"os:node/792002E1-A69E-4976-AE05-D278B08B23FF","to":"skeleton","chain":7588,"m":220}},{"type":"Feature","geometry":{"type":"LineString","coordinates":[[-3.581103,50.361096],[-3.58156,50.36247]]},"properties":{"node_id":"os:node/797FD744-5197-4166-97C9-EBE165CD421E","to":"skeleton","chain":36872,"m":156}},{"type":"Feature","geometry":{"type":"LineString","coordinates":[[-1.350588,50.742929],[-1.37777,50.75636]]},"properties":{"node_id":"os:node/7A1298FF-BE04-4DA7-95D1-9BDA267FD222","to":"skeleton","chain":12529,"m":2431}},{"type":"Feature","geometry":{"type":"LineString","coordinates":[[0.964314,51.372665],[1.01053,51.40466]]},"properties":{"node_id":"os:node/7A56FA94-B364-4A72-98E6-2D8F69C015DB","to":"skeleton","chain":49946,"m":4801}},{"type":"Feature","geometry":{"type":"LineString","coordinates":[[-1.513639,50.743079],[-1.51137,50.74406]]},"properties":{"node_id":"os:node/7B8EC3D0-D13E-436D-80AE-5D9EB19815C7","to":"skeleton","chain":25459,"m":194}},{"type":"Feature","geometry":{"type":"LineString","coordinates":[[-3.239141,53.389181],[-3.23908,53.38361]]},"properties":{"node_id":"os:node/7C1857D0-5A12-475B-AAA9-C080E4320534","to":"skeleton","chain":25746,"m":620}},{"type":"Feature","geometry":{"type":"LineString","coordinates":[[-4.995815,50.162133],[-4.99619,50.16211]]},"properties":{"node_id":"os:node/7C5F3315-2C63-4A80-83F1-36FFAC520259","to":"skeleton","chain":59328,"m":27}},{"type":"Feature","geometry":{"type":"LineString","coordinates":[[0.083307,52.933215],[0.07819,52.93209]]},"properties":{"node_id":"os:node/7C95F639-8FBB-45D4-B9C5-960C97511D1E","to":"skeleton","chain":47891,"m":366}},{"type":"Feature","geometry":{"type":"LineString","coordinates":[[-4.412041,52.997356],[-4.44511,53.02263]]},"properties":{"node_id":"os:node/7D525D54-C92D-4B13-A8CF-12501F98D0E3","to":"skeleton","chain":9814,"m":3582}},{"type":"Feature","geometry":{"type":"LineString","coordinates":[[-4.692741,51.710518],[-4.69252,51.70988]]},"properties":{"node_id":"os:node/7DB0262D-CF59-4E6F-9CE9-2B4C736AF355","to":"skeleton","chain":58924,"m":73}},{"type":"Feature","geometry":{"type":"LineString","coordinates":[[-2.914307,51.401128],[-2.92427,51.4034]]},"properties":{"node_id":"os:node/7FB346FF-670C-4602-8257-55C3DF6CE6F5","to":"skeleton","chain":57745,"m":738}},{"type":"Feature","geometry":{"type":"LineString","coordinates":[[-3.266142,54.947369],[-3.26643,54.95471]]},"properties":{"node_id":"os:node/8187E791-9EFB-4813-B9FF-2B070355BD8C","to":"skeleton","chain":18987,"m":817}},{"type":"Feature","geometry":{"type":"LineString","coordinates":[[-4.468195,53.181123],[-4.47939,53.16508]]},"properties":{"node_id":"os:node/82236A45-96EA-48F0-A262-1F6EAFDB5212","to":"skeleton","chain":15888,"m":1935}},{"type":"Feature","geometry":{"type":"LineString","coordinates":[[-4.301449,51.59568],[-4.31417,51.60311]]},"properties":{"node_id":"os:node/82834FF2-4008-49B1-92F2-9A786ECF7E66","to":"skeleton","chain":53358,"m":1208}},{"type":"Feature","geometry":{"type":"LineString","coordinates":[[-2.844806,54.044086],[-2.84426,54.04427]]},"properties":{"node_id":"os:node/82D8A8CE-5C7C-423B-AF12-685F5CCDFE00","to":"skeleton","chain":72595,"m":41}},{"type":"Feature","geometry":{"type":"LineString","coordinates":[[-3.474212,50.562043],[-3.49043,50.54024]]},"properties":{"node_id":"os:node/845D6DE0-EEC8-4B7F-BCA6-19F9BFA26D33","to":"skeleton","chain":62508,"m":2683}},{"type":"Feature","geometry":{"type":"LineString","coordinates":[[-5.393276,50.229406],[-5.3993,50.23274]]},"properties":{"node_id":"os:node/84F6902C-C269-4FF8-8CC6-43BD504905C7","to":"skeleton","chain":3021,"m":568}},{"type":"Feature","geometry":{"type":"LineString","coordinates":[[1.257671,51.891134],[1.25794,51.89218]]},"properties":{"node_id":"os:node/85DBB50E-0675-4FEF-883D-C975C4752D25","to":"skeleton","chain":71076,"m":118}},{"type":"Feature","geometry":{"type":"LineString","coordinates":[[-5.056204,50.178839],[-5.04266,50.1853]]},"properties":{"node_id":"os:node/87CF663C-9CB8-4BE5-AF4B-0F323D3DA5A5","to":"skeleton","chain":25097,"m":1205}},{"type":"Feature","geometry":{"type":"LineString","coordinates":[[-5.15101,50.390945],[-5.15365,50.39458]]},"properties":{"node_id":"os:node/88700EA9-FE3E-4DE1-8533-17502899CB08","to":"skeleton","chain":8990,"m":446}},{"type":"Feature","geometry":{"type":"LineString","coordinates":[[-4.891513,50.2187],[-4.90025,50.20024]]},"properties":{"node_id":"os:node/88BD8EC4-7ACD-4019-B4F5-10D308AC4ED4","to":"skeleton","chain":75499,"m":2146}},{"type":"Feature","geometry":{"type":"LineString","coordinates":[[-1.36061,54.91795],[-1.36052,54.91737]]},"properties":{"node_id":"os:node/895296BB-2AC2-4069-ACF0-AAB3AA6674E8","to":"skeleton","chain":43856,"m":65}},{"type":"Feature","geometry":{"type":"LineString","coordinates":[[-5.019351,50.183622],[-5.019,50.1831]]},"properties":{"node_id":"os:node/89B6D043-3DBB-49E8-87A3-CD07513BBFDB","to":"skeleton","chain":60784,"m":63}},{"type":"Feature","geometry":{"type":"LineString","coordinates":[[-1.411155,50.724683],[-1.41092,50.72448]]},"properties":{"node_id":"os:node/8A3C9C01-3428-47CA-98D2-DEEF07DD8C91","to":"skeleton","chain":63953,"m":28}},{"type":"Feature","geometry":{"type":"LineString","coordinates":[[1.189715,51.079223],[1.19088,51.0774]]},"properties":{"node_id":"os:node/8AF85AC9-545A-4098-AAD3-AE43EE087BCF","to":"skeleton","chain":1120,"m":219}},{"type":"Feature","geometry":{"type":"LineString","coordinates":[[-4.139752,51.564749],[-4.12969,51.56018]]},"properties":{"node_id":"os:node/8BB2442C-F0EF-4768-B652-0822A70DC22F","to":"skeleton","chain":40300,"m":863}},{"type":"Feature","geometry":{"type":"LineString","coordinates":[[-4.683954,51.721029],[-4.68329,51.71001]]},"properties":{"node_id":"os:node/8DB9261B-FC9D-4B7F-9799-A4B080D93FD3","to":"skeleton","chain":58924,"m":1227}},{"type":"Feature","geometry":{"type":"LineString","coordinates":[[-4.578347,50.332509],[-4.58094,50.32605]]},"properties":{"node_id":"os:node/8EA490E8-C9C9-4975-B55E-27C198BE3DA4","to":"skeleton","chain":34677,"m":742}},{"type":"Feature","geometry":{"type":"LineString","coordinates":[[1.220085,51.949282],[1.2201,51.94729]]},"properties":{"node_id":"os:node/8F97CE5E-C0E5-4F4D-8BFD-8757022DB5AB","to":"skeleton","chain":11008,"m":222}},{"type":"Feature","geometry":{"type":"LineString","coordinates":[[-3.034471,53.451309],[-3.03684,53.44902]]},"properties":{"node_id":"os:node/900878E8-286D-4BB4-BB86-397F442B5DE5","to":"skeleton","chain":54258,"m":299}},{"type":"Feature","geometry":{"type":"LineString","coordinates":[[-5.235414,50.300695],[-5.26845,50.3204]]},"properties":{"node_id":"os:node/90A76973-103A-42F8-A662-2EA775C7C021","to":"skeleton","chain":21417,"m":3216}},{"type":"Feature","geometry":{"type":"LineString","coordinates":[[-5.433254,50.183071],[-5.43337,50.18299]]},"properties":{"node_id":"os:node/91E35FDB-5C65-4AF1-87E1-B004582AC233","to":"skeleton","chain":36659,"m":12}},{"type":"Feature","geometry":{"type":"LineString","coordinates":[[-4.070098,50.310144],[-4.0705,50.311]]},"properties":{"node_id":"os:node/92972F6E-9F9B-4F51-84E5-36C6B842A05B","to":"skeleton","chain":38752,"m":99}},{"type":"Feature","geometry":{"type":"LineString","coordinates":[[-2.913711,53.731461],[-2.914,53.72999]]},"properties":{"node_id":"os:node/93236FBB-59C0-4175-9889-936DE1B2082B","to":"skeleton","chain":27995,"m":165}},{"type":"Feature","geometry":{"type":"LineString","coordinates":[[-3.863156,50.264229],[-3.87638,50.25368]]},"properties":{"node_id":"os:node/95694681-E55D-468F-AC25-A30ADFE992D9","to":"skeleton","chain":64012,"m":1505}},{"type":"Feature","geometry":{"type":"LineString","coordinates":[[-5.103685,51.719698],[-5.10188,51.72048]]},"properties":{"node_id":"os:node/95A194E6-57A8-41E2-A96B-E17821AC03B8","to":"skeleton","chain":60962,"m":152}},{"type":"Feature","geometry":{"type":"LineString","coordinates":[[0.273783,53.020782],[0.26857,53.01829]]},"properties":{"node_id":"os:node/97C69D40-415C-4BC9-80C5-CDA2FE121CC4","to":"skeleton","chain":64768,"m":447}},{"type":"Feature","geometry":{"type":"LineString","coordinates":[[-0.127105,53.644873],[-0.14216,53.6323]]},"properties":{"node_id":"os:node/988F9C4B-DF46-44EC-BD04-6E8B30F8A354","to":"skeleton","chain":1564,"m":1718}},{"type":"Feature","geometry":{"type":"LineString","coordinates":[[-4.397503,52.198395],[-4.3996,52.19979]]},"properties":{"node_id":"os:node/9C861854-6766-4B3B-8253-458C2234D118","to":"skeleton","chain":51149,"m":211}},{"type":"Feature","geometry":{"type":"LineString","coordinates":[[-4.935833,51.706063],[-4.93667,51.70611]]},"properties":{"node_id":"os:node/9DD06246-876A-4565-837C-975DF879BC07","to":"skeleton","chain":13232,"m":58}},{"type":"Feature","geometry":{"type":"LineString","coordinates":[[-1.948257,50.681571],[-1.94848,50.68153]]},"properties":{"node_id":"os:node/9DDED47F-DD3A-4864-AF18-89D11F20051B","to":"skeleton","chain":59274,"m":16}},{"type":"Feature","geometry":{"type":"LineString","coordinates":[[-0.320876,51.465619],[-0.3214,51.46565]]},"properties":{"node_id":"os:node/9ED1ECA6-7838-447C-93DC-BC908FC23A6D","to":"skeleton","chain":32819,"m":37}},{"type":"Feature","geometry":{"type":"LineString","coordinates":[[-4.078164,51.667379],[-4.07784,51.66758]]},"properties":{"node_id":"os:node/9FEB3912-A6C8-4857-AE7F-256E24E2C3CE","to":"skeleton","chain":60399,"m":32}},{"type":"Feature","geometry":{"type":"LineString","coordinates":[[-1.333581,50.756691],[-1.3435,50.77205]]},"properties":{"node_id":"os:node/9FF94156-AE60-4B6F-B8BB-4D5C9A9080E5","to":"skeleton","chain":16651,"m":1846}},{"type":"Feature","geometry":{"type":"LineString","coordinates":[[-3.081182,53.714294],[-3.08453,53.71644]]},"properties":{"node_id":"os:node/A0DD003D-380E-4287-91AE-3C4D2CFD9C5D","to":"skeleton","chain":32860,"m":325}},{"type":"Feature","geometry":{"type":"LineString","coordinates":[[-2.970209,53.979995],[-2.96389,53.9839]]},"properties":{"node_id":"os:node/A1F5D8D4-D2B8-4026-B995-4517070FEC8F","to":"skeleton","chain":57206,"m":600}},{"type":"Feature","geometry":{"type":"LineString","coordinates":[[-5.005792,51.691641],[-5.00504,51.69557]]},"properties":{"node_id":"os:node/A219AD9B-0665-4CD8-BBAE-0B72D385E9C6","to":"skeleton","chain":51473,"m":440}},{"type":"Feature","geometry":{"type":"LineString","coordinates":[[-1.570635,55.339417],[-1.57089,55.33859]]},"properties":{"node_id":"os:node/A22B601A-CC0A-426A-A065-54BFD52D6053","to":"skeleton","chain":21119,"m":93}},{"type":"Feature","geometry":{"type":"LineString","coordinates":[[-1.163527,54.602053],[-1.16573,54.60335]]},"properties":{"node_id":"os:node/A28CFD7E-BD62-4578-BA2A-BD06782F0F54","to":"skeleton","chain":4090,"m":203}},{"type":"Feature","geometry":{"type":"LineString","coordinates":[[-0.788302,54.560481],[-0.78818,54.56054]]},"properties":{"node_id":"os:node/A465B482-5DF4-4428-BF51-93E87D3E95B7","to":"skeleton","chain":10498,"m":10}},{"type":"Feature","geometry":{"type":"LineString","coordinates":[[0.22601,52.852367],[0.23105,52.86335]]},"properties":{"node_id":"os:node/A47DBFE6-5C58-4D98-BD00-16622F61FA01","to":"skeleton","chain":16701,"m":1269}},{"type":"Feature","geometry":{"type":"LineString","coordinates":[[-1.374822,50.783043],[-1.37518,50.78345]]},"properties":{"node_id":"os:node/A66B5163-11AA-49B9-98AA-BD6DC45404C5","to":"skeleton","chain":9588,"m":52}},{"type":"Feature","geometry":{"type":"LineString","coordinates":[[-4.321353,51.822894],[-4.32139,51.82259]]},"properties":{"node_id":"os:node/A69FFCBF-0D53-473F-A05B-4951C166D51E","to":"skeleton","chain":68114,"m":34}},{"type":"Feature","geometry":{"type":"LineString","coordinates":[[-1.348405,54.860529],[-1.32305,54.83918]]},"properties":{"node_id":"os:node/A6B7B757-2CDB-40AE-B43B-636CD962F76B","to":"skeleton","chain":6955,"m":2880}},{"type":"Feature","geometry":{"type":"LineString","coordinates":[[-4.425587,53.159717],[-4.42281,53.15951]]},"properties":{"node_id":"os:node/A73517DD-DFFD-4560-916D-EFC3D5927673","to":"skeleton","chain":37339,"m":187}},{"type":"Feature","geometry":{"type":"LineString","coordinates":[[1.173956,52.022789],[1.17123,52.02105]]},"properties":{"node_id":"os:node/A81C957A-B00D-45CE-9F83-475E2E360767","to":"skeleton","chain":58222,"m":269}},{"type":"Feature","geometry":{"type":"LineString","coordinates":[[1.675212,52.313162],[1.67295,52.31323]]},"properties":{"node_id":"os:node/A932A7E6-FB8B-439B-BDE9-34CB27AF8AFE","to":"skeleton","chain":23057,"m":155}},{"type":"Feature","geometry":{"type":"LineString","coordinates":[[-4.091071,52.406978],[-4.09151,52.40693]]},"properties":{"node_id":"os:node/AA988410-F4AF-4765-886B-898321589353","to":"skeleton","chain":58584,"m":30}},{"type":"Feature","geometry":{"type":"LineString","coordinates":[[-0.33246,53.737999],[-0.33223,53.73473]]},"properties":{"node_id":"os:node/AAD7B432-DF16-4978-B1B0-FB1B8F29C7F8","to":"skeleton","chain":64670,"m":364}},{"type":"Feature","geometry":{"type":"LineString","coordinates":[[0.959463,51.676007],[0.95989,51.67719]]},"properties":{"node_id":"os:node/AADE6AD9-3080-47C7-AFA6-D8DDF5B20025","to":"skeleton","chain":28530,"m":135}},{"type":"Feature","geometry":{"type":"LineString","coordinates":[[-5.480044,50.125533],[-5.48302,50.12194]]},"properties":{"node_id":"os:node/AAF09FC0-2ED1-4F2F-B460-23402CF2C55E","to":"skeleton","chain":65244,"m":453}},{"type":"Feature","geometry":{"type":"LineString","coordinates":[[-2.918505,53.731022],[-2.9184,53.72895]]},"properties":{"node_id":"os:node/AC0FE524-C6E2-4619-AC56-B39C4F6A35C3","to":"skeleton","chain":10018,"m":231}},{"type":"Feature","geometry":{"type":"LineString","coordinates":[[-4.644888,53.317663],[-4.64493,53.31881]]},"properties":{"node_id":"os:node/AC5B7D2A-5ECA-4CC6-B260-C0FBA8D2AC20","to":"skeleton","chain":79025,"m":128}},{"type":"Feature","geometry":{"type":"LineString","coordinates":[[-2.754197,51.494785],[-2.74695,51.50276]]},"properties":{"node_id":"os:node/AD2E1F59-A456-4F85-A549-456774725943","to":"skeleton","chain":73220,"m":1020}},{"type":"Feature","geometry":{"type":"LineString","coordinates":[[-3.325968,54.169975],[-3.31641,54.16437]]},"properties":{"node_id":"os:node/AFE0ADF2-FD22-45EE-9E81-E3103FF13FA9","to":"skeleton","chain":42699,"m":882}},{"type":"Feature","geometry":{"type":"LineString","coordinates":[[-4.313534,52.906953],[-4.2905,52.88362]]},"properties":{"node_id":"os:node/AFEB2627-9977-48E6-BAC5-531A17825F4E","to":"skeleton","chain":65612,"m":3023}},{"type":"Feature","geometry":{"type":"LineString","coordinates":[[0.058162,50.781024],[0.05896,50.78125]]},"properties":{"node_id":"os:node/B1C01B21-FE73-402F-B61C-DF63096AAB35","to":"skeleton","chain":40917,"m":62}},{"type":"Feature","geometry":{"type":"LineString","coordinates":[[-3.573189,54.613169],[-3.60191,54.61575]]},"properties":{"node_id":"os:node/B20EA2F7-03D2-4933-ACCC-DEB9B4CC9A63","to":"skeleton","chain":61272,"m":1877}},{"type":"Feature","geometry":{"type":"LineString","coordinates":[[-5.166215,51.766947],[-5.19595,51.79021]]},"properties":{"node_id":"os:node/B31CB4C4-15F0-4606-9A63-8B78ED829015","to":"skeleton","chain":11040,"m":3303}},{"type":"Feature","geometry":{"type":"LineString","coordinates":[[-4.869386,50.590112],[-4.89399,50.59525]]},"properties":{"node_id":"os:node/B3DF4DF8-8265-465B-AA04-44C62B4DB947","to":"skeleton","chain":38932,"m":1833}},{"type":"Feature","geometry":{"type":"LineString","coordinates":[[-3.324662,54.955482],[-3.32347,54.95249]]},"properties":{"node_id":"os:node/B537C607-0BD0-4B4C-996C-91F6A7D32A72","to":"skeleton","chain":18987,"m":342}},{"type":"Feature","geometry":{"type":"LineString","coordinates":[[-4.954983,51.705172],[-4.95581,51.70214]]},"properties":{"node_id":"os:node/B5C1BFB2-672B-4EE2-B1BB-68B43C0820ED","to":"skeleton","chain":12861,"m":342}},{"type":"Feature","geometry":{"type":"LineString","coordinates":[[-3.888579,53.294418],[-3.88891,53.30859]]},"properties":{"node_id":"os:node/B5CC556C-A2E7-44B2-BAB1-346157D9E4C5","to":"skeleton","chain":61361,"m":1577}},{"type":"Feature","geometry":{"type":"LineString","coordinates":[[-0.44656,54.359517],[-0.39544,54.35979]]},"properties":{"node_id":"os:node/B6E54ED1-1537-49C4-8BC8-0CF144F8F7C3","to":"skeleton","chain":77283,"m":3323}},{"type":"Feature","geometry":{"type":"LineString","coordinates":[[-3.307595,53.364251],[-3.27556,53.3606]]},"properties":{"node_id":"os:node/B79860B2-FFBF-4DC3-A4A8-2887527EAD3D","to":"skeleton","chain":69783,"m":2170}},{"type":"Feature","geometry":{"type":"LineString","coordinates":[[-4.364437,50.359926],[-4.40833,50.33088]]},"properties":{"node_id":"os:node/B9239BD6-49AD-46A9-8E1C-41D43E840DAB","to":"skeleton","chain":486,"m":4493}},{"type":"Feature","geometry":{"type":"LineString","coordinates":[[1.756276,52.471746],[1.75482,52.47279]]},"properties":{"node_id":"os:node/BA9B1346-04C3-4C08-A465-492E41529CDA","to":"skeleton","chain":55716,"m":153}},{"type":"Feature","geometry":{"type":"LineString","coordinates":[[-4.132554,50.361936],[-4.1328,50.36206]]},"properties":{"node_id":"os:node/BB452563-B817-4307-B8B2-817FA1045CFF","to":"skeleton","chain":3862,"m":22}},{"type":"Feature","geometry":{"type":"LineString","coordinates":[[-3.584215,54.573695],[-3.60649,54.561]]},"properties":{"node_id":"os:node/BC0762BD-382B-4D0E-9173-92E8A871C88C","to":"skeleton","chain":72229,"m":2017}},{"type":"Feature","geometry":{"type":"LineString","coordinates":[[-3.8102,51.582332],[-3.81046,51.58211]]},"properties":{"node_id":"os:node/BC18243E-525C-4FFB-9A91-8872682B6B2D","to":"skeleton","chain":47755,"m":31}},{"type":"Feature","geometry":{"type":"LineString","coordinates":[[-5.160212,50.349207],[-5.18579,50.36581]]},"properties":{"node_id":"os:node/BCD766D3-1EC5-4743-868B-3CFCD392A935","to":"skeleton","chain":78882,"m":2593}},{"type":"Feature","geometry":{"type":"LineString","coordinates":[[0.887895,51.740226],[0.88636,51.73966]]},"properties":{"node_id":"os:node/BE46F655-5E0E-45C0-973C-7F9F21EC306B","to":"skeleton","chain":13626,"m":123}},{"type":"Feature","geometry":{"type":"LineString","coordinates":[[-1.552229,50.719606],[-1.55085,50.71691]]},"properties":{"node_id":"os:node/BF22F443-C23B-468B-ABD1-7B5360D31AEE","to":"skeleton","chain":55939,"m":315}},{"type":"Feature","geometry":{"type":"LineString","coordinates":[[-3.495475,50.539903],[-3.49534,50.54022]]},"properties":{"node_id":"os:node/BF91EC9C-12C7-40F6-96F7-0AE36C0E7BCD","to":"skeleton","chain":62508,"m":37}},{"type":"Feature","geometry":{"type":"LineString","coordinates":[[0.569903,52.98297],[0.57291,52.98501]]},"properties":{"node_id":"os:node/C05D5704-6FAD-4295-AECB-9747E7112CB4","to":"skeleton","chain":58560,"m":304}},{"type":"Feature","geometry":{"type":"LineString","coordinates":[[-5.433686,50.177652],[-5.43559,50.17877]]},"properties":{"node_id":"os:node/C27AC628-9C7C-4C62-A070-0A1BEBC56C1E","to":"skeleton","chain":45802,"m":184}},{"type":"Feature","geometry":{"type":"LineString","coordinates":[[-4.129642,52.829261],[-4.13047,52.82894]]},"properties":{"node_id":"os:node/C47EA148-C055-4318-995C-189B3CE178D1","to":"skeleton","chain":60770,"m":66}},{"type":"Feature","geometry":{"type":"LineString","coordinates":[[-4.112814,51.567982],[-4.11394,51.56607]]},"properties":{"node_id":"os:node/C483C39F-05C5-4194-B547-A43D2441D9B1","to":"skeleton","chain":61716,"m":227}},{"type":"Feature","geometry":{"type":"LineString","coordinates":[[-4.515998,52.137139],[-4.53184,52.14599]]},"properties":{"node_id":"os:node/C4937364-2542-43E1-9CC4-373E21980F67","to":"skeleton","chain":3920,"m":1465}},{"type":"Feature","geometry":{"type":"LineString","coordinates":[[-1.361111,50.783641],[-1.37297,50.77612]]},"properties":{"node_id":"os:node/C62CCFC0-D062-4676-A95F-48598694FAA4","to":"skeleton","chain":18117,"m":1183}},{"type":"Feature","geometry":{"type":"LineString","coordinates":[[0.840378,52.991275],[0.84244,52.99276]]},"properties":{"node_id":"os:node/C7141FF3-E1DC-4E61-9E2A-1C92BE28CCAB","to":"skeleton","chain":74166,"m":216}},{"type":"Feature","geometry":{"type":"LineString","coordinates":[[1.46391,52.046684],[1.46393,52.04683]]},"properties":{"node_id":"os:node/C7BDECCF-62C7-4638-9085-B98D8AE865FA","to":"skeleton","chain":37927,"m":16}},{"type":"Feature","geometry":{"type":"LineString","coordinates":[[-5.060087,50.192339],[-5.06002,50.1923]]},"properties":{"node_id":"os:node/C8EAB648-D6A7-4C38-96C4-9AE3ABF5F691","to":"skeleton","chain":53971,"m":6}},{"type":"Feature","geometry":{"type":"LineString","coordinates":[[-4.075175,51.216278],[-4.07558,51.21646]]},"properties":{"node_id":"os:node/CB9E6A01-757C-4D6A-BE67-F2A08A4AD3C9","to":"skeleton","chain":19063,"m":35}},{"type":"Feature","geometry":{"type":"LineString","coordinates":[[0.157375,52.913033],[0.15707,52.91281]]},"properties":{"node_id":"os:node/CC64788A-9177-4B13-8138-FCBFA5EDEFAD","to":"skeleton","chain":37301,"m":32}},{"type":"Feature","geometry":{"type":"LineString","coordinates":[[-5.077549,50.165294],[-5.07754,50.16538]]},"properties":{"node_id":"os:node/CD2242AB-5CAA-4E0A-BABD-823739688374","to":"skeleton","chain":60313,"m":10}},{"type":"Feature","geometry":{"type":"LineString","coordinates":[[-4.630971,50.339022],[-4.63109,50.33892]]},"properties":{"node_id":"os:node/CDD55A47-078A-4322-AFAB-8A2342E58EF0","to":"skeleton","chain":28009,"m":14}},{"type":"Feature","geometry":{"type":"LineString","coordinates":[[-4.085528,50.316671],[-4.08028,50.31144]]},"properties":{"node_id":"os:node/CEA04C4E-B3B0-4C0F-BC2E-27D7BAAAA263","to":"skeleton","chain":38752,"m":691}},{"type":"Feature","geometry":{"type":"LineString","coordinates":[[-4.26629,51.659392],[-4.26375,51.65738]]},"properties":{"node_id":"os:node/CEE5E0B3-7559-4549-8C24-CAAEB07C1565","to":"skeleton","chain":11828,"m":285}},{"type":"Feature","geometry":{"type":"LineString","coordinates":[[-3.079079,53.498441],[-3.09372,53.50268]]},"properties":{"node_id":"os:node/CFA8DD62-B5B9-4AED-BD16-11FD2E76C084","to":"skeleton","chain":78627,"m":1080}},{"type":"Feature","geometry":{"type":"LineString","coordinates":[[-5.103342,51.780767],[-5.12243,51.7827]]},"properties":{"node_id":"os:node/CFAC78E9-948D-4BE5-A448-072F157AAD21","to":"skeleton","chain":14699,"m":1335}},{"type":"Feature","geometry":{"type":"LineString","coordinates":[[-4.329168,53.124781],[-4.32893,53.12514]]},"properties":{"node_id":"os:node/D029541A-5F59-405D-87EE-701681E1EE2F","to":"skeleton","chain":32173,"m":43}},{"type":"Feature","geometry":{"type":"LineString","coordinates":[[-0.830152,50.750436],[-0.82459,50.75048]]},"properties":{"node_id":"os:node/D11523AA-464B-4D90-9526-2E8C4DA297AF","to":"skeleton","chain":71987,"m":393}},{"type":"Feature","geometry":{"type":"LineString","coordinates":[[0.215384,52.870083],[0.21438,52.87111]]},"properties":{"node_id":"os:node/D178D9FD-FA92-403F-8BAF-A257D41541B8","to":"skeleton","chain":67078,"m":133}},{"type":"Feature","geometry":{"type":"LineString","coordinates":[[-4.566705,53.389778],[-4.57977,53.39374]]},"properties":{"node_id":"os:node/D2F1908A-E032-4A2C-9221-57FA48811500","to":"skeleton","chain":20142,"m":974}},{"type":"Feature","geometry":{"type":"LineString","coordinates":[[-1.526514,50.735074],[-1.52309,50.73743]]},"properties":{"node_id":"os:node/D4A5090D-27C0-440E-9128-B75D157769EC","to":"skeleton","chain":7667,"m":356}},{"type":"Feature","geometry":{"type":"LineString","coordinates":[[-1.490212,55.118496],[-1.48962,55.11869]]},"properties":{"node_id":"os:node/D4E8B5A5-C61F-4D82-8A09-8AFD541B0024","to":"skeleton","chain":7509,"m":43}},{"type":"Feature","geometry":{"type":"LineString","coordinates":[[0.890745,51.750818],[0.89069,51.75099]]},"properties":{"node_id":"os:node/D77B4ED9-FE14-473E-B399-AD68C186407A","to":"skeleton","chain":24756,"m":20}},{"type":"Feature","geometry":{"type":"LineString","coordinates":[[-5.144875,51.714554],[-5.14499,51.70874]]},"properties":{"node_id":"os:node/D8BF93A1-9E80-408D-AE2A-515F12E7FE60","to":"skeleton","chain":39497,"m":647}},{"type":"Feature","geometry":{"type":"LineString","coordinates":[[-2.916043,53.731282],[-2.914,53.72999]]},"properties":{"node_id":"os:node/D8C9AAF3-EB21-482E-B45C-BF4C1B4CC68E","to":"skeleton","chain":27995,"m":197}},{"type":"Feature","geometry":{"type":"LineString","coordinates":[[-3.279239,54.878852],[-3.2822,54.87858]]},"properties":{"node_id":"os:node/D8F1C2F4-DF3B-4023-93E2-0644BEBCB5BE","to":"skeleton","chain":39231,"m":192}},{"type":"Feature","geometry":{"type":"LineString","coordinates":[[-1.236821,50.745278],[-1.21568,50.75869]]},"properties":{"node_id":"os:node/DA7F8307-AFAD-42B7-AAE2-8B9EFE37EF20","to":"skeleton","chain":29787,"m":2110}},{"type":"Feature","geometry":{"type":"LineString","coordinates":[[-0.525,54.418472],[-0.48725,54.43526]]},"properties":{"node_id":"os:node/DB067D58-8627-4DEF-95D0-1C5F5AD42AA4","to":"skeleton","chain":55626,"m":3081}},{"type":"Feature","geometry":{"type":"LineString","coordinates":[[0.208265,52.998878],[0.20739,52.99805]]},"properties":{"node_id":"os:node/DB1601AB-3E62-421D-8250-0EB4DE7C9E19","to":"skeleton","chain":75477,"m":109}},{"type":"Feature","geometry":{"type":"LineString","coordinates":[[-1.312959,50.842019],[-1.3154,50.84415]]},"properties":{"node_id":"os:node/DC5DA700-7EBB-416D-9365-C7ADAB9180AF","to":"skeleton","chain":9210,"m":293}},{"type":"Feature","geometry":{"type":"LineString","coordinates":[[-5.295922,51.896852],[-5.29907,51.89934]]},"properties":{"node_id":"os:node/DDF8832F-98ED-4E52-BD3D-E978E56D5D0A","to":"skeleton","chain":54112,"m":351}},{"type":"Feature","geometry":{"type":"LineString","coordinates":[[1.287558,51.959334],[1.28535,51.9585]]},"properties":{"node_id":"os:node/E0436123-2603-4614-BB0E-55CC1A6FB0EF","to":"skeleton","chain":74656,"m":178}},{"type":"Feature","geometry":{"type":"LineString","coordinates":[[-5.141484,50.100111],[-5.14042,50.10007]]},"properties":{"node_id":"os:node/E1587EEC-F4C6-4EF7-835B-CF6A930B97EF","to":"skeleton","chain":39172,"m":76}},{"type":"Feature","geometry":{"type":"LineString","coordinates":[[-3.806493,53.23527],[-3.80658,53.23567]]},"properties":{"node_id":"os:node/E1F9CEE6-8083-4E50-B365-E7BA363FF7B9","to":"skeleton","chain":4238,"m":45}},{"type":"Feature","geometry":{"type":"LineString","coordinates":[[0.909937,51.77067],[0.90829,51.76971]]},"properties":{"node_id":"os:node/E228D7C2-A6CF-4C1D-8AB8-63A11116BF49","to":"skeleton","chain":38507,"m":156}},{"type":"Feature","geometry":{"type":"LineString","coordinates":[[-5.136775,50.40274],[-5.16386,50.42152]]},"properties":{"node_id":"os:node/E2CDD94A-E7C3-40FE-8F05-C4E70B1CABB0","to":"skeleton","chain":61558,"m":2841}},{"type":"Feature","geometry":{"type":"LineString","coordinates":[[-4.780255,50.28953],[-4.77253,50.28468]]},"properties":{"node_id":"os:node/E35F36C3-E486-4FE8-89D4-FFCDAF279672","to":"skeleton","chain":53982,"m":771}},{"type":"Feature","geometry":{"type":"LineString","coordinates":[[-3.301552,54.1384],[-3.33144,54.15547]]},"properties":{"node_id":"os:node/E3BB423C-D1E6-4484-B829-8290B065BE51","to":"skeleton","chain":42699,"m":2724}},{"type":"Feature","geometry":{"type":"LineString","coordinates":[[0.752662,52.984088],[0.75518,52.98355]]},"properties":{"node_id":"os:node/E4191A75-B277-4830-B471-090E97E6C9F5","to":"skeleton","chain":26114,"m":179}},{"type":"Feature","geometry":{"type":"LineString","coordinates":[[-0.764208,53.700572],[-0.76331,53.69924]]},"properties":{"node_id":"os:node/E4427138-C100-4504-BEA9-4F54CBEEEDA9","to":"skeleton","chain":16729,"m":160}},{"type":"Feature","geometry":{"type":"LineString","coordinates":[[-2.933754,53.729974],[-2.93334,53.72844]]},"properties":{"node_id":"os:node/E5289CC0-1EAE-45BA-BD8F-C923C3148E62","to":"skeleton","chain":29289,"m":173}},{"type":"Feature","geometry":{"type":"LineString","coordinates":[[-4.231427,52.254716],[-4.29444,52.26096]]},"properties":{"node_id":"os:node/E5CCDFF7-9AD4-493A-B390-72A54D6FEB6F","to":"skeleton","chain":15886,"m":4357}},{"type":"Feature","geometry":{"type":"LineString","coordinates":[[-4.496002,52.827071],[-4.47725,52.82409]]},"properties":{"node_id":"os:node/E5E3CA3D-BD93-4AAC-81A5-A2F911F48C23","to":"skeleton","chain":62458,"m":1306}},{"type":"Feature","geometry":{"type":"LineString","coordinates":[[-4.259722,53.364454],[-4.25021,53.36949]]},"properties":{"node_id":"os:node/E5F8CAED-B68E-4A22-BD5B-18D837782F8E","to":"skeleton","chain":74872,"m":845}},{"type":"Feature","geometry":{"type":"LineString","coordinates":[[-4.271373,53.37702],[-4.27139,53.37813]]},"properties":{"node_id":"os:node/E832412C-D5BD-464D-96D7-924294FA2FF1","to":"skeleton","chain":2239,"m":124}},{"type":"Feature","geometry":{"type":"LineString","coordinates":[[0.233803,53.40403],[0.23269,53.40473]]},"properties":{"node_id":"os:node/EEB7B0F5-EE5A-4CCB-9F86-269D81CCE429","to":"skeleton","chain":22618,"m":107}},{"type":"Feature","geometry":{"type":"LineString","coordinates":[[-4.699922,50.692003],[-4.7164,50.69242]]},"properties":{"node_id":"os:node/F110AD7E-57D2-41A0-A6D7-76E2E845AB7C","to":"skeleton","chain":73230,"m":1165}},{"type":"Feature","geometry":{"type":"LineString","coordinates":[[-4.392692,53.010405],[-4.44511,53.02263]]},"properties":{"node_id":"os:node/F28548FF-D397-4712-A937-6B49576C9CF4","to":"skeleton","chain":9814,"m":3771}},{"type":"Feature","geometry":{"type":"LineString","coordinates":[[-5.151402,50.093942],[-5.15396,50.0946]]},"properties":{"node_id":"os:node/F2930270-559B-4577-B9CB-41E31C136E0E","to":"skeleton","chain":5810,"m":197}},{"type":"Feature","geometry":{"type":"LineString","coordinates":[[-0.933059,50.77968],[-0.92609,50.77946]]},"properties":{"node_id":"os:node/F2A023AB-19A9-4B34-BE45-03BD63100C0F","to":"skeleton","chain":69699,"m":492}},{"type":"Feature","geometry":{"type":"LineString","coordinates":[[-2.719097,51.505758],[-2.71684,51.50686]]},"properties":{"node_id":"os:node/F2B8C702-F41D-470E-B159-B19009B92F36","to":"skeleton","chain":41545,"m":199}},{"type":"Feature","geometry":{"type":"LineString","coordinates":[[0.010099,53.542222],[0.0238,53.53591]]},"properties":{"node_id":"os:node/F3E2EFDC-BB6C-4679-8542-A937EA8EE03E","to":"skeleton","chain":54286,"m":1148}},{"type":"Feature","geometry":{"type":"LineString","coordinates":[[-4.227373,53.337618],[-4.22931,53.33998]]},"properties":{"node_id":"os:node/F461C490-50F4-467A-AAF3-C6EFBAD36136","to":"skeleton","chain":12549,"m":293}},{"type":"Feature","geometry":{"type":"LineString","coordinates":[[-0.745225,50.754832],[-0.74293,50.75571]]},"properties":{"node_id":"os:node/F6497409-6330-4627-AE8D-DB95D5C29381","to":"skeleton","chain":64373,"m":189}},{"type":"Feature","geometry":{"type":"LineString","coordinates":[[-0.540356,50.797921],[-0.53832,50.79956]]},"properties":{"node_id":"os:node/F733A7ED-D7E7-42D1-B331-2529698615FB","to":"skeleton","chain":23511,"m":232}},{"type":"Feature","geometry":{"type":"LineString","coordinates":[[-5.547588,50.10601],[-5.5429,50.10342]]},"properties":{"node_id":"os:node/F80571CF-C823-4303-8FE3-E1AE403F89AB","to":"skeleton","chain":69747,"m":442}},{"type":"Feature","geometry":{"type":"LineString","coordinates":[[-5.075942,51.68359],[-5.03218,51.70188]]},"properties":{"node_id":"os:node/F8188B10-1129-46DE-932C-55F6CBC00CF1","to":"skeleton","chain":37950,"m":3646}},{"type":"Feature","geometry":{"type":"LineString","coordinates":[[-5.157958,50.006827],[-5.13943,49.98687]]},"properties":{"node_id":"os:node/F8DF1239-06FC-456F-ABE3-AD5E34730BB0","to":"skeleton","chain":60407,"m":2587}},{"type":"Feature","geometry":{"type":"LineString","coordinates":[[-5.543394,50.110634],[-5.53974,50.10506]]},"properties":{"node_id":"os:node/F93B591F-AF2F-4869-8707-3E56B3238C1C","to":"skeleton","chain":17149,"m":673}},{"type":"Feature","geometry":{"type":"LineString","coordinates":[[-2.891102,54.078338],[-2.89467,54.07612]]},"properties":{"node_id":"os:node/FAF40836-BAFD-4C7D-B1C6-916EA97F122E","to":"skeleton","chain":15350,"m":340}},{"type":"Feature","geometry":{"type":"LineString","coordinates":[[0.106331,53.511293],[0.10358,53.51352]]},"properties":{"node_id":"os:node/FB01FA4A-C1F9-4EF5-B600-E4AE74DD1765","to":"skeleton","chain":23000,"m":308}},{"type":"Feature","geometry":{"type":"LineString","coordinates":[[-4.041576,51.207831],[-4.04728,51.21359]]},"properties":{"node_id":"os:node/FB0C71A5-32AB-4F03-AD10-F3D5B8A32698","to":"skeleton","chain":48932,"m":754}},{"type":"Feature","geometry":{"type":"LineString","coordinates":[[-2.875117,53.735461],[-2.87355,53.73465]]},"properties":{"node_id":"os:node/FB4D99D9-D6D2-453F-855A-4F6A5139EDE6","to":"skeleton","chain":60994,"m":137}},{"type":"Feature","geometry":{"type":"LineString","coordinates":[[-1.331708,50.846011],[-1.33096,50.84698]]},"properties":{"node_id":"os:node/FB9FC122-A776-4AB3-AE2E-C61C712A7418","to":"skeleton","chain":34180,"m":120}},{"type":"Feature","geometry":{"type":"LineString","coordinates":[[-4.388633,50.363491],[-4.4241,50.3406]]},"properties":{"node_id":"os:node/FC828C4B-F219-4711-A2CE-32A341AFC0C9","to":"skeleton","chain":486,"m":3584}},{"type":"Feature","geometry":{"type":"LineString","coordinates":[[-1.474066,55.086284],[-1.48962,55.11869]]},"properties":{"node_id":"os:node/FE9DAF66-9432-4F2E-A80D-099381032CC5","to":"skeleton","chain":7509,"m":3741}},{"type":"Feature","geometry":{"type":"LineString","coordinates":[[-2.93594,51.398444],[-2.93429,51.39767]]},"properties":{"node_id":"os:node/FEC06B15-C0F3-43EF-86B8-C3521A932250","to":"skeleton","chain":23823,"m":143}},{"type":"Feature","geometry":{"type":"LineString","coordinates":[[-4.823685,50.593274],[-4.82633,50.60467]]},"properties":{"node_id":"os:node/FF2FCEEF-44C7-4315-9EEF-C5FE7FD65070","to":"skeleton","chain":74675,"m":1281}},{"type":"Feature","geometry":{"type":"LineString","coordinates":[[-3.163382,54.053096],[-3.16763,54.05833]]},"properties":{"node_id":"os:node/FF56696D-559B-4F9C-8359-B75ACEE0DDB0","to":"skeleton","chain":7309,"m":645}},{"type":"Feature","geometry":{"type":"LineString","coordinates":[[-5.021392,51.707523],[-5.02456,51.70045]]},"properties":{"node_id":"os:node/FFD89B96-0E68-4586-9D3F-5EC79031D6A4","to":"skeleton","chain":51473,"m":817}}]}