{"type": "FeatureCollection", "properties": {"what": "extent of the EMODnet cache. Outside this the sightline layer has no data and must not be read as 'no land visible'. Inside it, read each cell's `known` flag: the answer is unknowable for a wide band within this rectangle.", "source_id": "emodnet_bathymetry", "attribution": "Contains EMODnet Bathymetry data. EMODnet Bathymetry Consortium (2024): EMODnet Digital Bathymetry (DTM 2024), licensed CC BY 4.0.", "use_constraint": "DO NOT USE FOR NAVIGATION"}, "features": [{"type": "Feature", "properties": {"state": "known"}, "geometry": {"type": "Polygon", "coordinates": [[[-7.999999999999994, 49.49999999999999], [2.000000000000006, 49.49999999999999], [2.000000000000006, 60.99999999999999], [-7.999999999999994, 60.99999999999999], [-7.999999999999994, 49.49999999999999]]]}}]}